STARLINK-36861          
1 67934U 26037C   26066.25001157 -.01457156  00000+0 -62050-2 0  9993
2 67934  42.9996 213.5444 0001591 273.7469 119.7107 15.87223188  2808
STARLINK-36860          
1 67935U 26037D   26066.25001157 -.01459336  00000+0 -61840-2 0  9992
2 67935  42.9994 213.5353 0001617 276.5450 120.6333 15.87324978  2807
STARLINK-36848          
1 67936U 26037E   26066.25001157 -.01499621  00000+0 -61605-2 0  9993
2 67936  42.9995 213.5164 0001433 274.8918 129.5118 15.87557458  2805
STARLINK-36370          
1 67937U 26037F   26066.25001157 -.01506523  00000+0 -62319-2 0  9997
2 67937  42.9997 213.5261 0001710 274.6587 126.2742 15.87427989  2806
STARLINK-36371          
1 67938U 26037G   26066.25001157 -.01471164  00000+0 -61235-2 0  9996
2 67938  42.9996 213.5078 0001611 275.5363 132.1860 15.87706707  2809
STARLINK-36246          
1 67939U 26037H   26066.25001157 -.01473142  00000+0 -60866-2 0  9994
2 67939  42.9995 213.5001 0001540 273.1769 137.8364 15.87858376  2711
STARLINK-36907          
1 67940U 26037J   26066.25001157 -.01467195  00000+0 -59461-2 0  9996
2 67940  42.9996 213.4729 0001408 273.7947 147.5710 15.88229037  2807
STARLINK-36927          
1 67941U 26037K   26066.25001157 -.01461730  00000+0 -58421-2 0  9991
2 67941  42.9995 213.4561 0001531 275.4852 152.5609 15.88489722  2804
STARLINK-36914          
1 67942U 26037L   26066.25001157 -.01470449  00000+0 -60490-2 0  9998
2 67942  42.9996 213.4899 0001444 275.6883 139.1269 15.87940220  2806
STARLINK-36851          
1 67943U 26037M   26066.25001157 -.01466975  00000+0 -59892-2 0  9992
2 67943  42.9995 213.4818 0001508 276.5478 141.5673 15.88081628  2803
STARLINK-36892          
1 67944U 26037N   26066.25001157 -.01460574  00000+0 -58765-2 0  9990
2 67944  42.9994 213.4653 0001539 277.2620 147.4414 15.88356045  2807
STARLINK-36908          
1 67945U 26037P   26066.25001157 -.01470081  00000+0 -58576-2 0  9995
2 67945  42.9995 213.4465 0001605 276.0784 155.8433 15.88566361  2800
