CCSDS_OMM_VERS = 2.0
CREATION_DATE  = 
ORIGINATOR     = 

OBJECT_NAME    = STARLINK-36861
OBJECT_ID      = 2026-037C
CENTER_NAME    = EARTH
REF_FRAME      = TEME
TIME_SYSTEM    = UTC
MEAN_ELEMENT_THEORY = SGP/SGP4

EPOCH          = 2026-03-07T06:00:00.999648
MEAN_MOTION    = 15.87223188
ECCENTRICITY   = .00015919
INCLINATION    = 42.9996
RA_OF_ASC_NODE = 213.5444
ARG_OF_PERICENTER = 273.7469
MEAN_ANOMALY   = 119.7107

EPHEMERIS_TYPE = 0
CLASSIFICATION_TYPE = U
NORAD_CAT_ID   = 67934
ELEMENT_SET_NO = 999
REV_AT_EPOCH   = 280
BSTAR          = -.62049929E-2
MEAN_MOTION_DOT = -.1457156E-1
MEAN_MOTION_DDOT = 0

CCSDS_OMM_VERS = 2.0
CREATION_DATE  = 
ORIGINATOR     = 

OBJECT_NAME    = STARLINK-36860
OBJECT_ID      = 2026-037D
CENTER_NAME    = EARTH
REF_FRAME      = TEME
TIME_SYSTEM    = UTC
MEAN_ELEMENT_THEORY = SGP/SGP4

EPOCH          = 2026-03-07T06:00:00.999648
MEAN_MOTION    = 15.87324978
ECCENTRICITY   = .00016178
INCLINATION    = 42.9994
RA_OF_ASC_NODE = 213.5353
ARG_OF_PERICENTER = 276.5450
MEAN_ANOMALY   = 120.6333

EPHEMERIS_TYPE = 0
CLASSIFICATION_TYPE = U
NORAD_CAT_ID   = 67935
ELEMENT_SET_NO = 999
REV_AT_EPOCH   = 280
BSTAR          = -.61839845E-2
MEAN_MOTION_DOT = -.1459336E-1
MEAN_MOTION_DDOT = 0

CCSDS_OMM_VERS = 2.0
CREATION_DATE  = 
ORIGINATOR     = 

OBJECT_NAME    = STARLINK-36848
OBJECT_ID      = 2026-037E
CENTER_NAME    = EARTH
REF_FRAME      = TEME
TIME_SYSTEM    = UTC
MEAN_ELEMENT_THEORY = SGP/SGP4

EPOCH          = 2026-03-07T06:00:00.999648
MEAN_MOTION    = 15.87557458
ECCENTRICITY   = .00014339
INCLINATION    = 42.9995
RA_OF_ASC_NODE = 213.5164
ARG_OF_PERICENTER = 274.8918
MEAN_ANOMALY   = 129.5118

EPHEMERIS_TYPE = 0
CLASSIFICATION_TYPE = U
NORAD_CAT_ID   = 67936
ELEMENT_SET_NO = 999
REV_AT_EPOCH   = 280
BSTAR          = -.61605045E-2
MEAN_MOTION_DOT = -.1499621E-1
MEAN_MOTION_DDOT = 0

CCSDS_OMM_VERS = 2.0
CREATION_DATE  = 
ORIGINATOR     = 

OBJECT_NAME    = STARLINK-36370
OBJECT_ID      = 2026-037F
CENTER_NAME    = EARTH
REF_FRAME      = TEME
TIME_SYSTEM    = UTC
MEAN_ELEMENT_THEORY = SGP/SGP4

EPOCH          = 2026-03-07T06:00:00.999648
MEAN_MOTION    = 15.87427989
ECCENTRICITY   = .00017107
INCLINATION    = 42.9997
RA_OF_ASC_NODE = 213.5261
ARG_OF_PERICENTER = 274.6587
MEAN_ANOMALY   = 126.2742

EPHEMERIS_TYPE = 0
CLASSIFICATION_TYPE = U
NORAD_CAT_ID   = 67937
ELEMENT_SET_NO = 999
REV_AT_EPOCH   = 280
BSTAR          = -.62319103E-2
MEAN_MOTION_DOT = -.1506523E-1
MEAN_MOTION_DDOT = 0

CCSDS_OMM_VERS = 2.0
CREATION_DATE  = 
ORIGINATOR     = 

OBJECT_NAME    = STARLINK-36371
OBJECT_ID      = 2026-037G
CENTER_NAME    = EARTH
REF_FRAME      = TEME
TIME_SYSTEM    = UTC
MEAN_ELEMENT_THEORY = SGP/SGP4

EPOCH          = 2026-03-07T06:00:00.999648
MEAN_MOTION    = 15.87706707
ECCENTRICITY   = .00016114
INCLINATION    = 42.9996
RA_OF_ASC_NODE = 213.5078
ARG_OF_PERICENTER = 275.5363
MEAN_ANOMALY   = 132.1860

EPHEMERIS_TYPE = 0
CLASSIFICATION_TYPE = U
NORAD_CAT_ID   = 67938
ELEMENT_SET_NO = 999
REV_AT_EPOCH   = 280
BSTAR          = -.61234625E-2
MEAN_MOTION_DOT = -.1471164E-1
MEAN_MOTION_DDOT = 0

CCSDS_OMM_VERS = 2.0
CREATION_DATE  = 
ORIGINATOR     = 

OBJECT_NAME    = STARLINK-36246
OBJECT_ID      = 2026-037H
CENTER_NAME    = EARTH
REF_FRAME      = TEME
TIME_SYSTEM    = UTC
MEAN_ELEMENT_THEORY = SGP/SGP4

EPOCH          = 2026-03-07T06:00:00.999648
MEAN_MOTION    = 15.87858376
ECCENTRICITY   = .00015406
INCLINATION    = 42.9995
RA_OF_ASC_NODE = 213.5001
ARG_OF_PERICENTER = 273.1769
MEAN_ANOMALY   = 137.8364

EPHEMERIS_TYPE = 0
CLASSIFICATION_TYPE = U
NORAD_CAT_ID   = 67939
ELEMENT_SET_NO = 999
REV_AT_EPOCH   = 271
BSTAR          = -.60865689E-2
MEAN_MOTION_DOT = -.1473142E-1
MEAN_MOTION_DDOT = 0

CCSDS_OMM_VERS = 2.0
CREATION_DATE  = 
ORIGINATOR     = 

OBJECT_NAME    = STARLINK-36907
OBJECT_ID      = 2026-037J
CENTER_NAME    = EARTH
REF_FRAME      = TEME
TIME_SYSTEM    = UTC
MEAN_ELEMENT_THEORY = SGP/SGP4

EPOCH          = 2026-03-07T06:00:00.999648
MEAN_MOTION    = 15.88229037
ECCENTRICITY   = .0001408
INCLINATION    = 42.9996
RA_OF_ASC_NODE = 213.4729
ARG_OF_PERICENTER = 273.7947
MEAN_ANOMALY   = 147.5710

EPHEMERIS_TYPE = 0
CLASSIFICATION_TYPE = U
NORAD_CAT_ID   = 67940
ELEMENT_SET_NO = 999
REV_AT_EPOCH   = 280
BSTAR          = -.59460751E-2
MEAN_MOTION_DOT = -.1467195E-1
MEAN_MOTION_DDOT = 0

CCSDS_OMM_VERS = 2.0
CREATION_DATE  = 
ORIGINATOR     = 

OBJECT_NAME    = STARLINK-36927
OBJECT_ID      = 2026-037K
CENTER_NAME    = EARTH
REF_FRAME      = TEME
TIME_SYSTEM    = UTC
MEAN_ELEMENT_THEORY = SGP/SGP4

EPOCH          = 2026-03-07T06:00:00.999648
MEAN_MOTION    = 15.88489722
ECCENTRICITY   = .00015312
INCLINATION    = 42.9995
RA_OF_ASC_NODE = 213.4561
ARG_OF_PERICENTER = 275.4852
MEAN_ANOMALY   = 152.5609

EPHEMERIS_TYPE = 0
CLASSIFICATION_TYPE = U
NORAD_CAT_ID   = 67941
ELEMENT_SET_NO = 999
REV_AT_EPOCH   = 280
BSTAR          = -.58420848E-2
MEAN_MOTION_DOT = -.146173E-1
MEAN_MOTION_DDOT = 0

CCSDS_OMM_VERS = 2.0
CREATION_DATE  = 
ORIGINATOR     = 

OBJECT_NAME    = STARLINK-36914
OBJECT_ID      = 2026-037L
CENTER_NAME    = EARTH
REF_FRAME      = TEME
TIME_SYSTEM    = UTC
MEAN_ELEMENT_THEORY = SGP/SGP4

EPOCH          = 2026-03-07T06:00:00.999648
MEAN_MOTION    = 15.87940220
ECCENTRICITY   = .00014442
INCLINATION    = 42.9996
RA_OF_ASC_NODE = 213.4899
ARG_OF_PERICENTER = 275.6883
MEAN_ANOMALY   = 139.1269

EPHEMERIS_TYPE = 0
CLASSIFICATION_TYPE = U
NORAD_CAT_ID   = 67942
ELEMENT_SET_NO = 999
REV_AT_EPOCH   = 280
BSTAR          = -.60490052E-2
MEAN_MOTION_DOT = -.1470449E-1
MEAN_MOTION_DDOT = 0

CCSDS_OMM_VERS = 2.0
CREATION_DATE  = 
ORIGINATOR     = 

OBJECT_NAME    = STARLINK-36851
OBJECT_ID      = 2026-037M
CENTER_NAME    = EARTH
REF_FRAME      = TEME
TIME_SYSTEM    = UTC
MEAN_ELEMENT_THEORY = SGP/SGP4

EPOCH          = 2026-03-07T06:00:00.999648
MEAN_MOTION    = 15.88081628
ECCENTRICITY   = .00015086
INCLINATION    = 42.9995
RA_OF_ASC_NODE = 213.4818
ARG_OF_PERICENTER = 276.5478
MEAN_ANOMALY   = 141.5673

EPHEMERIS_TYPE = 0
CLASSIFICATION_TYPE = U
NORAD_CAT_ID   = 67943
ELEMENT_SET_NO = 999
REV_AT_EPOCH   = 280
BSTAR          = -.59891799E-2
MEAN_MOTION_DOT = -.1466975E-1
MEAN_MOTION_DDOT = 0

CCSDS_OMM_VERS = 2.0
CREATION_DATE  = 
ORIGINATOR     = 

OBJECT_NAME    = STARLINK-36892
OBJECT_ID      = 2026-037N
CENTER_NAME    = EARTH
REF_FRAME      = TEME
TIME_SYSTEM    = UTC
MEAN_ELEMENT_THEORY = SGP/SGP4

EPOCH          = 2026-03-07T06:00:00.999648
MEAN_MOTION    = 15.88356045
ECCENTRICITY   = .00015398
INCLINATION    = 42.9994
RA_OF_ASC_NODE = 213.4653
ARG_OF_PERICENTER = 277.2620
MEAN_ANOMALY   = 147.4414

EPHEMERIS_TYPE = 0
CLASSIFICATION_TYPE = U
NORAD_CAT_ID   = 67944
ELEMENT_SET_NO = 999
REV_AT_EPOCH   = 280
BSTAR          = -.58764692E-2
MEAN_MOTION_DOT = -.1460574E-1
MEAN_MOTION_DDOT = 0

CCSDS_OMM_VERS = 2.0
CREATION_DATE  = 
ORIGINATOR     = 

OBJECT_NAME    = STARLINK-36908
OBJECT_ID      = 2026-037P
CENTER_NAME    = EARTH
REF_FRAME      = TEME
TIME_SYSTEM    = UTC
MEAN_ELEMENT_THEORY = SGP/SGP4

EPOCH          = 2026-03-07T06:00:00.999648
MEAN_MOTION    = 15.88566361
ECCENTRICITY   = .00016059
INCLINATION    = 42.9995
RA_OF_ASC_NODE = 213.4465
ARG_OF_PERICENTER = 276.0784
MEAN_ANOMALY   = 155.8433

EPHEMERIS_TYPE = 0
CLASSIFICATION_TYPE = U
NORAD_CAT_ID   = 67945
ELEMENT_SET_NO = 999
REV_AT_EPOCH   = 280
BSTAR          = -.58575874E-2
MEAN_MOTION_DOT = -.1470081E-1
MEAN_MOTION_DDOT = 0

